[{"OBJECT_NAME":"STARLINK-32707","OBJECT_ID":"2024-254S","EPOCH":"2026-03-09T05:41:23.610048","MEAN_MOTION":15.27592539,"ECCENTRICITY":0.00023246,"INCLINATION":43.0003,"RA_OF_ASC_NODE":18.9358,"ARG_OF_PERICENTER":257.6288,"MEAN_ANOMALY":102.4304,"EPHEMERIS_TYPE":0,"CLASSIFICATION_TYPE":"U","NORAD_CAT_ID":62478,"ELEMENT_SET_NO":999,"REV_AT_EPOCH":6758,"BSTAR":0.00091105331,"MEAN_MOTION_DOT":0.00024903,"MEAN_MOTION_DDOT":0},{"OBJECT_NAME":"ELECTRON KICK STAGE R\/B","OBJECT_ID":"2024-077D","EPOCH":"2026-03-09T23:22:03.772128","MEAN_MOTION":14.57371822,"ECCENTRICITY":0.03475139,"INCLINATION":97.3266,"RA_OF_ASC_NODE":78.5056,"ARG_OF_PERICENTER":202.0113,"MEAN_ANOMALY":156.5853,"EPHEMERIS_TYPE":0,"CLASSIFICATION_TYPE":"U","NORAD_CAT_ID":59590,"ELEMENT_SET_NO":999,"REV_AT_EPOCH":9944,"BSTAR":0.00037103128,"MEAN_MOTION_DOT":3.845e-5,"MEAN_MOTION_DDOT":0}]
